[{"OBJECT_NAME":"GHGSAT-C3","OBJECT_ID":"2022-057F","EPOCH":"2026-03-09T22:30:13.234752","MEAN_MOTION":15.32943835,"ECCENTRICITY":0.00073198,"INCLINATION":97.6431,"RA_OF_ASC_NODE":211.0668,"ARG_OF_PERICENTER":112.4588,"MEAN_ANOMALY":247.7429,"EPHEMERIS_TYPE":0,"CLASSIFICATION_TYPE":"U","NORAD_CAT_ID":52737,"ELEMENT_SET_NO":999,"REV_AT_EPOCH":21032,"BSTAR":0.00031249517,"MEAN_MOTION_DOT":9.871e-5,"MEAN_MOTION_DDOT":0},{"OBJECT_NAME":"STARLINK-33634","OBJECT_ID":"2025-063Q","EPOCH":"2026-03-09T23:05:12.246720","MEAN_MOTION":15.30210772,"ECCENTRICITY":0.00014251,"INCLINATION":53.1592,"RA_OF_ASC_NODE":51.0129,"ARG_OF_PERICENTER":99.1503,"MEAN_ANOMALY":260.9659,"EPHEMERIS_TYPE":0,"CLASSIFICATION_TYPE":"U","NORAD_CAT_ID":63377,"ELEMENT_SET_NO":999,"REV_AT_EPOCH":5480,"BSTAR":0.00094310296,"MEAN_MOTION_DOT":0.00027686,"MEAN_MOTION_DDOT":0}]
